start=new Date('2022-07-26T00:00:00.000Z').valueOf();
sats=[{"TLE_LINE1":"1 52834U 22062E   22206.91667824 -.00207069  00000-0 -37197-2 0  9994","TIME_SYSTEM":"UTC","OBJECT_NAME":"STARLINK-4108","ARG_OF_PERICENTER":"70.0349","MEAN_MOTION_DDOT":"0.0000000000000","CLASSIFICATION_TYPE":"U","APOAPSIS":"417.477","ELEMENT_SET_NO":"999","FILE":"3521671","EPHEMERIS_TYPE":"0","SEMIMAJOR_AXIS":"6794.803","DECAY_DATE":null,"MEAN_ANOMALY":"250.7164","OBJECT_TYPE":"PAYLOAD","TLE_LINE2":"2 52834  53.2172 215.6432 0001190  70.0349 250.7164 15.50020437  6032","MEAN_MOTION_DOT":"-0.00207069","MEAN_ELEMENT_THEORY":"SGP4","RA_OF_ASC_NODE":"215.6432","SITE":"AFETR","BSTAR":"-0.00371970000000","CENTER_NAME":"EARTH","LAUNCH_DATE":"2022-06-17","PERIOD":"92.902","COUNTRY_CODE":"US","OBJECT_ID":"2022-062E","MEAN_MOTION":"15.50020437","REV_AT_EPOCH":"603","EPOCH":"2022-07-25T22:00:00.999936","GP_ID":"208839799","ECCENTRICITY":"0.00011900","RCS_SIZE":"LARGE","NORAD_CAT_ID":"52834","REF_FRAME":"TEME","PERIAPSIS":"415.860","INCLINATION":"53.2172"},{"EPHEMERIS_TYPE":"0","SEMIMAJOR_AXIS":"6794.785","DECAY_DATE":null,"CLASSIFICATION_TYPE":"U","APOAPSIS":"417.565","ELEMENT_SET_NO":"999","FILE":"3521671","TLE_LINE2":"2 52835  53.2172 215.6562 0001346  59.2618 262.3289 15.50026558  6035","OBJECT_TYPE":"PAYLOAD","MEAN_MOTION_DOT":"-0.00215646","MEAN_ELEMENT_THEORY":"SGP4","RA_OF_ASC_NODE":"215.6562","MEAN_ANOMALY":"262.3289","TIME_SYSTEM":"UTC","OBJECT_NAME":"STARLINK-4080","ARG_OF_PERICENTER":"59.2618","TLE_LINE1":"1 52835U 22062F   22206.91667824 -.00215646  00000-0 -38774-2 0  9997","MEAN_MOTION_DDOT":"0.0000000000000","GP_ID":"208839802","OBJECT_ID":"2022-062F","MEAN_MOTION":"15.50026558","REV_AT_EPOCH":"603","EPOCH":"2022-07-25T22:00:00.999936","PERIAPSIS":"415.736","INCLINATION":"53.2172","RCS_SIZE":"LARGE","ECCENTRICITY":"0.00013460","NORAD_CAT_ID":"52835","REF_FRAME":"TEME","CENTER_NAME":"EARTH","LAUNCH_DATE":"2022-06-17","BSTAR":"-0.00387740000000","SITE":"AFETR","COUNTRY_CODE":"US","PERIOD":"92.902"},{"GP_ID":"208840189","MEAN_MOTION":"15.50032664","REV_AT_EPOCH":"603","OBJECT_ID":"2022-062G","EPOCH":"2022-07-25T22:00:00.999936","INCLINATION":"53.2172","PERIAPSIS":"415.636","ECCENTRICITY":"0.00014660","RCS_SIZE":"LARGE","REF_FRAME":"TEME","NORAD_CAT_ID":"52836","CENTER_NAME":"EARTH","LAUNCH_DATE":"2022-06-17","SITE":"AFETR","BSTAR":"-0.00403330000000","COUNTRY_CODE":"US","PERIOD":"92.901","DECAY_DATE":null,"SEMIMAJOR_AXIS":"6794.768","EPHEMERIS_TYPE":"0","ELEMENT_SET_NO":"999","APOAPSIS":"417.629","CLASSIFICATION_TYPE":"U","FILE":"3521691","OBJECT_TYPE":"PAYLOAD","TLE_LINE2":"2 52836  53.2172 215.6682 0001466  55.5310 266.8990 15.50032664  6033","RA_OF_ASC_NODE":"215.6682","MEAN_ELEMENT_THEORY":"SGP4","MEAN_MOTION_DOT":"-0.00224111","MEAN_ANOMALY":"266.8990","TIME_SYSTEM":"UTC","OBJECT_NAME":"STARLINK-4043","ARG_OF_PERICENTER":"55.5310","TLE_LINE1":"1 52836U 22062G   22206.91667824 -.00224111  00000-0 -40333-2 0  9999","MEAN_MOTION_DDOT":"0.0000000000000"},{"MEAN_ANOMALY":"267.8000","RA_OF_ASC_NODE":"215.6919","MEAN_ELEMENT_THEORY":"SGP4","MEAN_MOTION_DOT":"-0.00244135","TLE_LINE2":"2 52837  53.2172 215.6919 0001563  57.1502 267.8000 15.50047171  6038","OBJECT_TYPE":"PAYLOAD","FILE":"3521691","APOAPSIS":"417.652","CLASSIFICATION_TYPE":"U","ELEMENT_SET_NO":"999","DECAY_DATE":null,"SEMIMAJOR_AXIS":"6794.725","EPHEMERIS_TYPE":"0","MEAN_MOTION_DDOT":"0.0000000000000","TLE_LINE1":"1 52837U 22062H   22206.91667824 -.00244135  00000-0 -44032-2 0  9998","OBJECT_NAME":"STARLINK-4036","ARG_OF_PERICENTER":"57.1502","TIME_SYSTEM":"UTC","REF_FRAME":"TEME","NORAD_CAT_ID":"52837","RCS_SIZE":"LARGE","ECCENTRICITY":"0.00015630","PERIAPSIS":"415.528","INCLINATION":"53.2172","EPOCH":"2022-07-25T22:00:00.999936","MEAN_MOTION":"15.50047171","REV_AT_EPOCH":"603","OBJECT_ID":"2022-062H","GP_ID":"208840193","PERIOD":"92.900","COUNTRY_CODE":"US","SITE":"AFETR","BSTAR":"-0.00440320000000","LAUNCH_DATE":"2022-06-17","CENTER_NAME":"EARTH"},{"MEAN_ANOMALY":"239.1208","MEAN_ELEMENT_THEORY":"SGP4","RA_OF_ASC_NODE":"215.6771","MEAN_MOTION_DOT":"-0.00227438","OBJECT_TYPE":"PAYLOAD","TLE_LINE2":"2 52838  53.2172 215.6771 0001261  84.1510 239.1208 15.50034868  6535","FILE":"3521691","APOAPSIS":"417.483","ELEMENT_SET_NO":"999","CLASSIFICATION_TYPE":"U","DECAY_DATE":null,"SEMIMAJOR_AXIS":"6794.761","EPHEMERIS_TYPE":"0","MEAN_MOTION_DDOT":"0.0000000000000","TLE_LINE1":"1 52838U 22062J   22206.91667824 -.00227438  00000-0 -40948-2 0  9998","OBJECT_NAME":"STARLINK-4092","ARG_OF_PERICENTER":"84.1510","TIME_SYSTEM":"UTC","REF_FRAME":"TEME","NORAD_CAT_ID":"52838","RCS_SIZE":"LARGE","ECCENTRICITY":"0.00012610","PERIAPSIS":"415.769","INCLINATION":"53.2172","EPOCH":"2022-07-25T22:00:00.999936","MEAN_MOTION":"15.50034868","REV_AT_EPOCH":"653","OBJECT_ID":"2022-062J","GP_ID":"208839807","PERIOD":"92.901","COUNTRY_CODE":"US","SITE":"AFETR","BSTAR":"-0.00409480000000","LAUNCH_DATE":"2022-06-17","CENTER_NAME":"EARTH"},{"TLE_LINE1":"1 52839U 22062K   22206.91667824 -.00259581  00000-0 -46895-2 0  9990","TIME_SYSTEM":"UTC","OBJECT_NAME":"STARLINK-4048","ARG_OF_PERICENTER":"64.2085","MEAN_MOTION_DDOT":"0.0000000000000","CLASSIFICATION_TYPE":"U","APOAPSIS":"417.584","ELEMENT_SET_NO":"999","FILE":"3521675","EPHEMERIS_TYPE":"0","SEMIMAJOR_AXIS":"6794.691","DECAY_DATE":null,"MEAN_ANOMALY":"262.4202","OBJECT_TYPE":"PAYLOAD","TLE_LINE2":"2 52839  53.2172 215.7168 0001513  64.2085 262.4202 15.50059003  6534","MEAN_MOTION_DOT":"-0.00259581","RA_OF_ASC_NODE":"215.7168","MEAN_ELEMENT_THEORY":"SGP4","SITE":"AFETR","BSTAR":"-0.00468950000000","CENTER_NAME":"EARTH","LAUNCH_DATE":"2022-06-17","PERIOD":"92.900","COUNTRY_CODE":"US","OBJECT_ID":"2022-062K","REV_AT_EPOCH":"653","MEAN_MOTION":"15.50059003","EPOCH":"2022-07-25T22:00:00.999936","GP_ID":"208840239","RCS_SIZE":"LARGE","ECCENTRICITY":"0.00015130","NORAD_CAT_ID":"52839","REF_FRAME":"TEME","PERIAPSIS":"415.528","INCLINATION":"53.2172"},{"MEAN_MOTION_DDOT":"0.0000000000000","OBJECT_NAME":"STARLINK-4049","ARG_OF_PERICENTER":"81.5755","TIME_SYSTEM":"UTC","TLE_LINE1":"1 52840U 22062L   22206.91667824 -.00251900  00000-0 -45471-2 0  9998","MEAN_ELEMENT_THEORY":"SGP4","RA_OF_ASC_NODE":"215.7042","MEAN_MOTION_DOT":"-0.00251900","TLE_LINE2":"2 52840  53.2172 215.7042 0001405  81.5755 244.2140 15.50053088  6539","OBJECT_TYPE":"PAYLOAD","MEAN_ANOMALY":"244.2140","DECAY_DATE":null,"SEMIMAJOR_AXIS":"6794.708","EPHEMERIS_TYPE":"0","FILE":"3521691","APOAPSIS":"417.528","CLASSIFICATION_TYPE":"U","ELEMENT_SET_NO":"999","COUNTRY_CODE":"US","PERIOD":"92.900","LAUNCH_DATE":"2022-06-17","CENTER_NAME":"EARTH","SITE":"AFETR","BSTAR":"-0.00454710000000","PERIAPSIS":"415.618","INCLINATION":"53.2172","REF_FRAME":"TEME","NORAD_CAT_ID":"52840","RCS_SIZE":"LARGE","ECCENTRICITY":"0.00014050","GP_ID":"208840187","EPOCH":"2022-07-25T22:00:00.999936","REV_AT_EPOCH":"653","MEAN_MOTION":"15.50053088","OBJECT_ID":"2022-062L"},{"PERIAPSIS":"415.468","INCLINATION":"53.2172","ECCENTRICITY":"0.00015380","RCS_SIZE":"MEDIUM","REF_FRAME":"TEME","NORAD_CAT_ID":"52841","GP_ID":"208839809","REV_AT_EPOCH":"653","MEAN_MOTION":"15.50073473","OBJECT_ID":"2022-062M","EPOCH":"2022-07-25T22:00:00.999936","COUNTRY_CODE":"US","PERIOD":"92.899","CENTER_NAME":"EARTH","LAUNCH_DATE":"2022-06-17","BSTAR":"-0.00504010000000","SITE":"AFETR","TLE_LINE2":"2 52841  53.2172 215.7544 0001538  55.1486 273.9998 15.50073473  6532","OBJECT_TYPE":"PAYLOAD","MEAN_ELEMENT_THEORY":"SGP4","RA_OF_ASC_NODE":"215.7544","MEAN_MOTION_DOT":"-0.00278437","MEAN_ANOMALY":"273.9998","DECAY_DATE":null,"EPHEMERIS_TYPE":"0","SEMIMAJOR_AXIS":"6794.648","APOAPSIS":"417.558","ELEMENT_SET_NO":"999","CLASSIFICATION_TYPE":"U","FILE":"3521691","MEAN_MOTION_DDOT":"0.0000000000000","TIME_SYSTEM":"UTC","OBJECT_NAME":"STARLINK-4065","ARG_OF_PERICENTER":"55.1486","TLE_LINE1":"1 52841U 22062M   22206.91667824 -.00278437  00000-0 -50401-2 0  9992"},{"INCLINATION":"53.2172","PERIAPSIS":"415.665","RCS_SIZE":"LARGE","ECCENTRICITY":"0.00013880","REF_FRAME":"TEME","NORAD_CAT_ID":"52842","GP_ID":"208839830","MEAN_MOTION":"15.50041024","REV_AT_EPOCH":"653","OBJECT_ID":"2022-062N","EPOCH":"2022-07-25T22:00:00.999936","COUNTRY_CODE":"US","PERIOD":"92.901","CENTER_NAME":"EARTH","LAUNCH_DATE":"2022-06-17","SITE":"AFETR","BSTAR":"-0.00425010000000","OBJECT_TYPE":"PAYLOAD","TLE_LINE2":"2 52842  53.2172 215.6791 0001388  69.1432 254.9679 15.50041024  6537","RA_OF_ASC_NODE":"215.6791","MEAN_ELEMENT_THEORY":"SGP4","MEAN_MOTION_DOT":"-0.00235851","MEAN_ANOMALY":"254.9679","DECAY_DATE":null,"EPHEMERIS_TYPE":"0","SEMIMAJOR_AXIS":"6794.743","APOAPSIS":"417.551","CLASSIFICATION_TYPE":"U","ELEMENT_SET_NO":"999","FILE":"3521672","MEAN_MOTION_DDOT":"0.0000000000000","TIME_SYSTEM":"UTC","OBJECT_NAME":"STARLINK-4046","ARG_OF_PERICENTER":"69.1432","TLE_LINE1":"1 52842U 22062N   22206.91667824 -.00235851  00000-0 -42501-2 0  9998"},{"GP_ID":"208840242","MEAN_MOTION":"15.50084138","REV_AT_EPOCH":"653","OBJECT_ID":"2022-062P","EPOCH":"2022-07-25T22:00:00.999936","INCLINATION":"53.2172","PERIAPSIS":"415.658","RCS_SIZE":"LARGE","ECCENTRICITY":"0.00012130","REF_FRAME":"TEME","NORAD_CAT_ID":"52843","CENTER_NAME":"EARTH","LAUNCH_DATE":"2022-06-17","BSTAR":"-0.00527670000000","SITE":"AFETR","COUNTRY_CODE":"US","PERIOD":"92.898","DECAY_DATE":null,"SEMIMAJOR_AXIS":"6794.617","EPHEMERIS_TYPE":"0","APOAPSIS":"417.306","ELEMENT_SET_NO":"999","CLASSIFICATION_TYPE":"U","FILE":"3521675","OBJECT_TYPE":"PAYLOAD","TLE_LINE2":"2 52843  53.2172 215.7793 0001213  81.4993 249.3277 15.50084138  6532","RA_OF_ASC_NODE":"215.7793","MEAN_ELEMENT_THEORY":"SGP4","MEAN_MOTION_DOT":"-0.00291118","MEAN_ANOMALY":"249.3277","TIME_SYSTEM":"UTC","OBJECT_NAME":"STARLINK-4188","ARG_OF_PERICENTER":"81.4993","TLE_LINE1":"1 52843U 22062P   22206.91667824 -.00291118  00000-0 -52767-2 0  9992","MEAN_MOTION_DDOT":"0.0000000000000"}];
